CRE (WAAS/PRN 138)      
1 28868U 05036A   23073.63871810 -.00000073  00000+0  00000+0 0  9994
2 28868   1.2447  91.0185 0002014 300.2834 263.3112  1.00271693 34513
IOR-W (EGNOS/PRN 126)   
1 28899U 05044A   23074.04980166  .00000011  00000+0  00000+0 0  9999
2 28899   3.7235  39.6232 0002788 327.2073 247.3762  1.00270860 63567
QZS-1 (QZSS/PRN 183)    
1 37158U 10045A   23066.51728160 -.00000171  00000+0  00000+0 0  9999
2 37158  42.6148 129.7673 0744299 269.9122  84.6301  1.00277312 45736
GSAT-8 (GAGAN/PRN 127)  
1 37605U 11022A   23074.22271455  .00000083  00000+0  00000+0 0  9990
2 37605   0.0212 258.9457 0005861  34.6495  14.2061  1.00271750 43317
LUCH 5A (SDCM/PRN 140)  
1 37951U 11074B   23073.85813303 -.00000048  00000+0  00000+0 0  9995
2 37951   5.7011  92.6851 0002840 275.2854 280.0734  1.00273097 41254
SES-5 (EGNOS/PRN 136)   
1 38652U 12036A   23073.80446437  .00000033  00000+0  00000+0 0  9991
2 38652   0.0580 301.2266 0001978  59.3604 106.1397  1.00271535 32557
GSAT-10 (GAGAN/PRN 128) 
1 38779U 12051B   23074.10952289 -.00000166  00000+0  00000+0 0  9997
2 38779   0.0433 264.7377 0002477  22.0957   8.0410  1.00271519 38355
LUCH 5B (SDCM/PRN 125)  
1 38977U 12061A   23073.80019330 -.00000135  00000+0  00000+0 0  9991
2 38977   7.8775  60.5269 0001806   7.3250  16.0010  1.00271060 38242
ASTRA 5B (EGNOS/PRN 123)
1 39617U 14011B   23073.80978142  .00000154  00000+0  00000+0 0  9995
2 39617   0.0769 305.5338 0002899  51.6800 137.9519  1.00273592 32734
LUCH 5V (SDCM/PRN 141)  
1 39727U 14023A   23074.03748052 -.00000270  00000+0  00000+0 0  9991
2 39727   2.1513  77.4153 0002323 295.5758 267.6156  1.00272352550577
GSAT-15 (GAGAN/PRN 139) 
1 41028U 15065A   23073.19563383 -.00000255  00000+0  00000+0 0  9996
2 41028   0.0762 270.3152 0000951 121.9794 303.1526  1.00270255 26864
E 117 W B (WAAS/PRN 131)
1 41589U 16038B   23072.98382556 -.00000008  00000+0  00000+0 0  9992
2 41589   0.0118 316.6204 0000255 313.9566 137.9313  1.00271847 24728
SES-15 (WAAS/PRN 133)   
1 42709U 17026A   23073.70608369  .00000060  00000+0  00000+0 0  9996
2 42709   0.0161  50.3559 0000446 344.9634 261.7506  1.00270277 22205
QZS-2 (QZSS/PRN 184)    
1 42738U 17028A   23073.36854976 -.00000114  00000+0  00000+0 0  9990
2 42738  41.3262 260.3332 0745243 270.3010 274.4157  1.00263001 21209
QZS-3 (QZSS/PRN 189)    
1 42917U 17048A   23073.82878337 -.00000348  00000+0  00000+0 0  9998
2 42917   0.0619 211.2469 0002354 157.5151 228.8116  1.00271527 20325
QZS-4 (QZSS/PRN 185)    
1 42965U 17062A   23073.67676946 -.00000300  00000+0  00000+0 0  9990
2 42965  40.6946 358.6519 0747908 269.8391 286.6832  1.00280297 19876
BEIDOU-3 G1 (PRN 130)   
1 43683U 18085A   23073.84215865 -.00000279  00000+0  00000+0 0  9997
2 43683   1.1630 139.0921 0001836  26.4394  89.8341  1.00274746 16122
BEIDOU-3 G2 (PRN 144)   
1 45344U 20017A   23074.03460406 -.00000141  00000+0  00000+0 0  9994
2 45344   1.9910   6.6976 0001644  42.3495 215.8215  1.00271449 11338
BEIDOU-3 G3 (PRN 143)   
1 45807U 20040A   23073.82555826 -.00000354  00000+0  00000+0 0  9997
2 45807   0.8695 317.9638 0006093 339.8919 282.0783  1.00271557 10134
GALAXY 30 (WAAS/PRN 135)
1 46114U 20056C   23073.63514435  .00000038  00000+0  00000+0 0  9994
2 46114   0.0180 151.1275 0001891 209.9213 274.5681  1.00272274  9359
